$$SOE
2461281.500000000, A.D. 2026-Aug-29 00:00:00.0000, 1.169771075311927E+09, -5.160202529335810E+09, -2.918644438335936E+08,
2461288.500000000, A.D. 2026-Sep-05 00:00:00.0000, 1.172885710937040E+09, -5.159714943843324E+09, -2.919029012183073E+08,
2461295.500000000, A.D. 2026-Sep-12 00:00:00.0000, 1.175999992296985E+09, -5.159225722875834E+09, -2.919412634978914E+08,
2461302.500000000, A.D. 2026-Sep-19 00:00:00.0000, 1.179113916862348E+09, -5.158734867781500E+09, -2.919795305183213E+08,
2461309.500000000, A.D. 2026-Sep-26 00:00:00.0000, 1.182227482482543E+09, -5.158242380491308E+09, -2.920177021736913E+08,
2461316.500000000, A.D. 2026-Oct-03 00:00:00.0000, 1.185340687456066E+09, -5.157748263283702E+09, -2.920557783965375E+08,
2461323.500000000, A.D. 2026-Oct-10 00:00:00.0000, 1.188453530514144E+09, -5.157252518641908E+09, -2.920937591487117E+08,
2461330.500000000, A.D. 2026-Oct-17 00:00:00.0000, 1.191566010769456E+09, -5.156755149184802E+09, -2.921316444159255E+08,
2461337.500000000, A.D. 2026-Oct-24 00:00:00.0000, 1.194678127654286E+09, -5.156256157693854E+09, -2.921694342099450E+08,
2461344.500000000, A.D. 2026-Oct-31 00:00:00.0000, 1.197789880946899E+09, -5.155755547302822E+09, -2.922071285928123E+08,
2461351.500000000, A.D. 2026-Nov-07 00:00:00.0000, 1.200901271225185E+09, -5.155253321776049E+09, -2.922447277479968E+08,
2461358.500000000, A.D. 2026-Nov-14 00:00:00.0000, 1.204012300948463E+09, -5.154749484987996E+09, -2.922822320441461E+08,
2461365.500000000, A.D. 2026-Nov-21 00:00:00.0000, 1.207122974355682E+09, -5.154244038922108E+09, -2.923196418693409E+08,
2461372.500000000, A.D. 2026-Nov-28 00:00:00.0000, 1.210233295181939E+09, -5.153736983197059E+09, -2.923569573898540E+08,
2461379.500000000, A.D. 2026-Dec-05 00:00:00.0000, 1.213343265812837E+09, -5.153228316776752E+09, -2.923941786187556E+08,
2461386.500000000, A.D. 2026-Dec-12 00:00:00.0000, 1.216452888041611E+09, -5.152718038753056E+09, -2.924313055549519E+08,
2461393.500000000, A.D. 2026-Dec-19 00:00:00.0000, 1.219562163541768E+09, -5.152206148194839E+09, -2.924683382187881E+08,
2461400.500000000, A.D. 2026-Dec-26 00:00:00.0000, 1.222671093912800E+09, -5.151692643931434E+09, -2.925052766418645E+08,
2461407.500000000, A.D. 2027-Jan-02 00:00:00.0000, 1.225779680574547E+09, -5.151177524461507E+09, -2.925421208517959E+08,
2461414.500000000, A.D. 2027-Jan-09 00:00:00.0000, 1.228887924626551E+09, -5.150660787967363E+09, -2.925788708608749E+08,
2461421.500000000, A.D. 2027-Jan-16 00:00:00.0000, 1.231995826706671E+09, -5.150142432426088E+09, -2.926155266610725E+08,
2461428.500000000, A.D. 2027-Jan-23 00:00:00.0000, 1.235103386893564E+09, -5.149622455857352E+09, -2.926520882328227E+08,
2461435.500000000, A.D. 2027-Jan-30 00:00:00.0000, 1.238210604839128E+09, -5.149100856755842E+09, -2.926885555887396E+08,
2461442.500000000, A.D. 2027-Feb-06 00:00:00.0000, 1.241317480554033E+09, -5.148577634368465E+09, -2.927249288635352E+08,
2461449.500000000, A.D. 2027-Feb-13 00:00:00.0000, 1.244424015384426E+09, -5.148052787596754E+09, -2.927612083083551E+08,
2461456.500000000, A.D. 2027-Feb-20 00:00:00.0000, 1.247530210814645E+09, -5.147526313315593E+09, -2.927973940375683E+08,
2461463.500000000, A.D. 2027-Feb-27 00:00:00.0000, 1.250636066490896E+09, -5.146998207321967E+09, -2.928334859188538E+08,
2461470.500000000, A.D. 2027-Mar-06 00:00:00.0000, 1.253741580483392E+09, -5.146468465991177E+09, -2.928694837264826E+08,
2461477.500000000, A.D. 2027-Mar-13 00:00:00.0000, 1.256846750186412E+09, -5.145937086591074E+09, -2.929053872437327E+08,
2461484.500000000, A.D. 2027-Mar-20 00:00:00.0000, 1.259951572726719E+09, -5.145404067088953E+09, -2.929411962792451E+08,
2461491.500000000, A.D. 2027-Mar-27 00:00:00.0000, 1.263056045082299E+09, -5.144869406000041E+09, -2.929769106608417E+08,
2461498.500000000, A.D. 2027-Apr-03 00:00:00.0000, 1.266160164114324E+09, -5.144333102325332E+09, -2.930125302294266E+08,
2461505.500000000, A.D. 2027-Apr-10 00:00:00.0000, 1.269263926573571E+09, -5.143795155555685E+09, -2.930480548367898E+08,
2461512.500000000, A.D. 2027-Apr-17 00:00:00.0000, 1.272367329103392E+09, -5.143255565756513E+09, -2.930834843505311E+08,
2461519.500000000, A.D. 2027-Apr-24 00:00:00.0000, 1.275470368318410E+09, -5.142714333795219E+09, -2.931188186784973E+08,
2461526.500000000, A.D. 2027-May-01 00:00:00.0000, 1.278573041258621E+09, -5.142171461683571E+09, -2.931540578379290E+08,
2461533.500000000, A.D. 2027-May-08 00:00:00.0000, 1.281675346526278E+09, -5.141626952286592E+09, -2.931892020363572E+08,
2461540.500000000, A.D. 2027-May-15 00:00:00.0000, 1.284777284608663E+09, -5.141080807444591E+09, -2.932242515489981E+08,
2461547.500000000, A.D. 2027-May-22 00:00:00.0000, 1.287878855822911E+09, -5.140533027099883E+09, -2.932592064610031E+08,
2461554.500000000, A.D. 2027-May-29 00:00:00.0000, 1.290980059238808E+09, -5.139983610896479E+09, -2.932940667022641E+08,
2461561.500000000, A.D. 2027-Jun-05 00:00:00.0000, 1.294080893464390E+09, -5.139432559120993E+09, -2.933288321999047E+08,
2461568.500000000, A.D. 2027-Jun-12 00:00:00.0000, 1.297181357286825E+09, -5.138879872552962E+09, -2.933635029289405E+08,
2461575.500000000, A.D. 2027-Jun-19 00:00:00.0000, 1.300281449837554E+09, -5.138325552159620E+09, -2.933980789070051E+08,
2461582.500000000, A.D. 2027-Jun-26 00:00:00.0000, 1.303381170561107E+09, -5.137769598896388E+09, -2.934325601799538E+08,
2461589.500000000, A.D. 2027-Jul-03 00:00:00.0000, 1.306480519119721E+09, -5.137212013604836E+09, -2.934669468095682E+08,
2461596.500000000, A.D. 2027-Jul-10 00:00:00.0000, 1.309579495270611E+09, -5.136652796999364E+09, -2.935012388657866E+08,
2461603.500000000, A.D. 2027-Jul-17 00:00:00.0000, 1.312678098752222E+09, -5.136091949781465E+09, -2.935354364297218E+08,
2461610.500000000, A.D. 2027-Jul-24 00:00:00.0000, 1.315776329335915E+09, -5.135529472944390E+09, -2.935695396267045E+08,
2461617.500000000, A.D. 2027-Jul-31 00:00:00.0000, 1.318874187454500E+09, -5.134965368032681E+09, -2.936035487076042E+08,
2461624.500000000, A.D. 2027-Aug-07 00:00:00.0000, 1.321971675206896E+09, -5.134399636204857E+09, -2.936374640657187E+08,
2461631.500000000, A.D. 2027-Aug-14 00:00:00.0000, 1.325068795437802E+09, -5.133832276352563E+09, -2.936712859987726E+08,
2461638.500000000, A.D. 2027-Aug-21 00:00:00.0000, 1.328165549510599E+09, -5.133263285640362E+09, -2.937050145476272E+08,
2461645.500000000, A.D. 2027-Aug-28 00:00:00.0000, 1.331261937204545E+09, -5.132692661262953E+09, -2.937386496280673E+08,
2461652.500000000, A.D. 2027-Sep-04 00:00:00.0000, 1.334357957555105E+09, -5.132120400917510E+09, -2.937721911429868E+08,
2461659.500000000, A.D. 2027-Sep-11 00:00:00.0000, 1.337453609242118E+09, -5.131546502652438E+09, -2.938056390012143E+08,
2461666.500000000, A.D. 2027-Sep-18 00:00:00.0000, 1.340548890658978E+09, -5.130970964742635E+09, -2.938389931085970E+08,
2461673.500000000, A.D. 2027-Sep-25 00:00:00.0000, 1.343643799891690E+09, -5.130393785668644E+09, -2.938722533589277E+08,
2461680.500000000, A.D. 2027-Oct-02 00:00:00.0000, 1.346738334682861E+09, -5.129814964171810E+09, -2.939054196296160E+08,
2461687.500000000, A.D. 2027-Oct-09 00:00:00.0000, 1.349832492403162E+09, -5.129234499389537E+09, -2.939384917847822E+08,
2461694.500000000, A.D. 2027-Oct-16 00:00:00.0000, 1.352926270093505E+09, -5.128652391125110E+09, -2.939714696962886E+08,
2461701.500000000, A.D. 2027-Oct-23 00:00:00.0000, 1.356019664837951E+09, -5.128068640257382E+09, -2.940043533071775E+08,
2461708.500000000, A.D. 2027-Oct-30 00:00:00.0000, 1.359112674842209E+09, -5.127483248679648E+09, -2.940371427221704E+08,
2461715.500000000, A.D. 2027-Nov-06 00:00:00.0000, 1.362205300054384E+09, -5.126896217639263E+09, -2.940698381264098E+08,
2461722.500000000, A.D. 2027-Nov-13 00:00:00.0000, 1.365297540342624E+09, -5.126307546554018E+09, -2.941024395201042E+08,
2461729.500000000, A.D. 2027-Nov-20 00:00:00.0000, 1.368389394131592E+09, -5.125717234490963E+09, -2.941349467138588E+08,
2461736.500000000, A.D. 2027-Nov-27 00:00:00.0000, 1.371480859115342E+09, -5.125125281343082E+09, -2.941673594907773E+08,
2461743.500000000, A.D. 2027-Dec-04 00:00:00.0000, 1.374571933023079E+09, -5.124531687789843E+09, -2.941996776750014E+08,
2461750.500000000, A.D. 2027-Dec-11 00:00:00.0000, 1.377662613887231E+09, -5.123936455005471E+09, -2.942319011349280E+08,
2461757.500000000, A.D. 2027-Dec-18 00:00:00.0000, 1.380752900088796E+09, -5.123339584453993E+09, -2.942640297739577E+08,
2461764.500000000, A.D. 2027-Dec-25 00:00:00.0000, 1.383842790331985E+09, -5.122741077773067E+09, -2.942960635227985E+08,
2461771.500000000, A.D. 2028-Jan-01 00:00:00.0000, 1.386932283589544E+09, -5.122140936731942E+09, -2.943280023358297E+08,
$$EOE